ONEWEB-0588             
1 55153U 23004P   25340.60906093  .00000085  00000+0  18220-3 0  9993
2 55153  87.9174  13.7343 0001299  94.7048 265.4233 13.18685664144317
ONEWEB-0598             
1 55154U 23004Q   25340.51090976  .00000425  00000+0  11622-2 0  9994
2 55154  87.8861  59.4445 0001659  81.4347 278.6968 13.11419716140644
ONEWEB-0599             
1 55155U 23004R   25340.60265096  .00000048  00000+0  89398-4 0  9990
2 55155  87.9116  44.1651 0001847  94.7237 265.4105 13.17649373142125
ONEWEB-0614             
1 55156U 23004S   25340.58212340  .00000148  00000+0  38131-3 0  9991
2 55156  87.8862  59.4399 0001507 115.2087 244.9197 13.11420123140592
ONEWEB-0616             
1 55157U 23004T   25340.56890101  .00000062  00000+0  12662-3 0  9993
2 55157  87.9125  44.1632 0002695  94.2770 265.8670 13.17649742142339
ONEWEB-0617             
1 55158U 23004U   25340.49394638 -.00000240  00000+0 -71171-3 0  9990
2 55158  87.8863  59.4365 0001333 107.4651 252.6623 13.11419904140602
ONEWEB-0618             
1 55159U 23004V   25340.20388947  .00014518  00000+0  87744-3 0  9990
2 55159  86.9084 255.8773 0010870 298.5562  61.4582 15.10525350153105
ONEWEB-0619             
1 55160U 23004W   25340.60096707  .00000030  00000+0  43269-4 0  9995
2 55160  87.9125  44.1307 0002029 112.5424 247.5922 13.17649414142235
ONEWEB-0620             
1 55161U 23004X   25340.48885886 -.00000398  00000+0 -11580-2 0  9994
2 55161  87.8862  59.4573 0001503  98.1613 261.9686 13.11419650140575
ONEWEB-0621             
1 55162U 23004Y   25340.51599427  .00000552  00000+0  15222-2 0  9999
2 55162  87.8868  59.4217 0001695 110.8443 249.2867 13.11420112140555
ONEWEB-0622             
1 55163U 23004Z   25340.59738990  .00000621  00000+0  17155-2 0  9992
2 55163  87.8858  59.4150 0001026 125.9663 234.1561 13.11416975140556
ONEWEB-0623             
1 55164U 23004AA  25340.59589983  .00000017  00000+0  11312-4 0  9999
2 55164  87.9115  44.1813 0001557 128.8112 231.3158 13.17652152142223
ONEWEB-0624             
1 55165U 23004AB  25340.61423711 -.00000034  00000+0 -13037-3 0  9995
2 55165  87.8938  28.8795 0001547 108.3981 251.7317 13.12920371142803
ONEWEB-0625             
1 55166U 23004AC  25340.58576784 -.00000279  00000+0 -75183-3 0  9992
2 55166  87.9114  44.1786 0001901  99.4488 260.6858 13.17649962142211
ONEWEB-0626             
1 55167U 23004AD  25340.57565829 -.00000062  00000+0 -19210-3 0  9999
2 55167  87.9113  44.1806 0001558  83.9410 276.1899 13.17648176142218
ONEWEB-0627             
1 55168U 23004AE  25340.56384169  .00000049  00000+0  92714-4 0  9999
2 55168  87.9114  44.1836 0001428 118.8720 241.2555 13.17649629142217
ONEWEB-0628             
1 55169U 23004AF  25340.60027171  .00000399  00000+0  10728-2 0  9993
2 55169  87.8948  28.9078 0001782 121.4950 238.6353 13.12440646142778
