[{"OBJECT_NAME":"ONEWEB-0588","OBJECT_ID":"2023-004P","EPOCH":"2025-12-06T14:37:02.864352","MEAN_MOTION":13.18685664,"ECCENTRICITY":0.00012991,"INCLINATION":87.9174,"RA_OF_ASC_NODE":13.7343,"ARG_OF_PERICENTER":94.7048,"MEAN_ANOMALY":265.4233,"EPHEMERIS_TYPE":0,"CLASSIFICATION_TYPE":"U","NORAD_CAT_ID":55153,"ELEMENT_SET_NO":999,"REV_AT_EPOCH":14431,"BSTAR":0.00018219701,"MEAN_MOTION_DOT":8.5e-7,"MEAN_MOTION_DDOT":0},{"OBJECT_NAME":"ONEWEB-0598","OBJECT_ID":"2023-004Q","EPOCH":"2025-12-06T12:15:42.603264","MEAN_MOTION":13.11419716,"ECCENTRICITY":0.00016591,"INCLINATION":87.8861,"RA_OF_ASC_NODE":59.4445,"ARG_OF_PERICENTER":81.4347,"MEAN_ANOMALY":278.6968,"EPHEMERIS_TYPE":0,"CLASSIFICATION_TYPE":"U","NORAD_CAT_ID":55154,"ELEMENT_SET_NO":999,"REV_AT_EPOCH":14064,"BSTAR":0.001162163,"MEAN_MOTION_DOT":4.25e-6,"MEAN_MOTION_DDOT":0},{"OBJECT_NAME":"ONEWEB-0599","OBJECT_ID":"2023-004R","EPOCH":"2025-12-06T14:27:49.042944","MEAN_MOTION":13.17649373,"ECCENTRICITY":0.00018479,"INCLINATION":87.9116,"RA_OF_ASC_NODE":44.1651,"ARG_OF_PERICENTER":94.7237,"MEAN_ANOMALY":265.4105,"EPHEMERIS_TYPE":0,"CLASSIFICATION_TYPE":"U","NORAD_CAT_ID":55155,"ELEMENT_SET_NO":999,"REV_AT_EPOCH":14212,"BSTAR":8.9398311e-5,"MEAN_MOTION_DOT":4.8e-7,"MEAN_MOTION_DDOT":0},{"OBJECT_NAME":"ONEWEB-0614","OBJECT_ID":"2023-004S","EPOCH":"2025-12-06T13:58:15.461760","MEAN_MOTION":13.11420123,"ECCENTRICITY":0.00015071,"INCLINATION":87.8862,"RA_OF_ASC_NODE":59.4399,"ARG_OF_PERICENTER":115.2087,"MEAN_ANOMALY":244.9197,"EPHEMERIS_TYPE":0,"CLASSIFICATION_TYPE":"U","NORAD_CAT_ID":55156,"ELEMENT_SET_NO":999,"REV_AT_EPOCH":14059,"BSTAR":0.00038130545,"MEAN_MOTION_DOT":1.48e-6,"MEAN_MOTION_DDOT":0},{"OBJECT_NAME":"ONEWEB-0616","OBJECT_ID":"2023-004T","EPOCH":"2025-12-06T13:39:13.047264","MEAN_MOTION":13.17649742,"ECCENTRICITY":0.00026959,"INCLINATION":87.9125,"RA_OF_ASC_NODE":44.1632,"ARG_OF_PERICENTER":94.277,"MEAN_ANOMALY":265.867,"EPHEMERIS_TYPE":0,"CLASSIFICATION_TYPE":"U","NORAD_CAT_ID":55157,"ELEMENT_SET_NO":999,"REV_AT_EPOCH":14233,"BSTAR":0.00012662222,"MEAN_MOTION_DOT":6.2e-7,"MEAN_MOTION_DDOT":0},{"OBJECT_NAME":"ONEWEB-0617","OBJECT_ID":"2023-004U","EPOCH":"2025-12-06T11:51:16.967232","MEAN_MOTION":13.11419904,"ECCENTRICITY":0.00013332,"INCLINATION":87.8863,"RA_OF_ASC_NODE":59.4365,"ARG_OF_PERICENTER":107.4651,"MEAN_ANOMALY":252.6623,"EPHEMERIS_TYPE":0,"CLASSIFICATION_TYPE":"U","NORAD_CAT_ID":55158,"ELEMENT_SET_NO":999,"REV_AT_EPOCH":14060,"BSTAR":-0.00071170696,"MEAN_MOTION_DOT":-2.4e-6,"MEAN_MOTION_DDOT":0},{"OBJECT_NAME":"ONEWEB-0618","OBJECT_ID":"2023-004V","EPOCH":"2025-12-06T04:53:36.050208","MEAN_MOTION":15.1052535,"ECCENTRICITY":0.00108704,"INCLINATION":86.9084,"RA_OF_ASC_NODE":255.8773,"ARG_OF_PERICENTER":298.5562,"MEAN_ANOMALY":61.4582,"EPHEMERIS_TYPE":0,"CLASSIFICATION_TYPE":"U","NORAD_CAT_ID":55159,"ELEMENT_SET_NO":999,"REV_AT_EPOCH":15310,"BSTAR":0.00087743948,"MEAN_MOTION_DOT":0.00014518,"MEAN_MOTION_DDOT":0},{"OBJECT_NAME":"ONEWEB-0619","OBJECT_ID":"2023-004W","EPOCH":"2025-12-06T14:25:23.554848","MEAN_MOTION":13.17649414,"ECCENTRICITY":0.00020291,"INCLINATION":87.9125,"RA_OF_ASC_NODE":44.1307,"ARG_OF_PERICENTER":112.5424,"MEAN_ANOMALY":247.5922,"EPHEMERIS_TYPE":0,"CLASSIFICATION_TYPE":"U","NORAD_CAT_ID":55160,"ELEMENT_SET_NO":999,"REV_AT_EPOCH":14223,"BSTAR":4.3269447e-5,"MEAN_MOTION_DOT":3.0e-7,"MEAN_MOTION_DDOT":0},{"OBJECT_NAME":"ONEWEB-0620","OBJECT_ID":"2023-004X","EPOCH":"2025-12-06T11:43:57.405504","MEAN_MOTION":13.1141965,"ECCENTRICITY":0.00015035,"INCLINATION":87.8862,"RA_OF_ASC_NODE":59.4573,"ARG_OF_PERICENTER":98.1613,"MEAN_ANOMALY":261.9686,"EPHEMERIS_TYPE":0,"CLASSIFICATION_TYPE":"U","NORAD_CAT_ID":55161,"ELEMENT_SET_NO":999,"REV_AT_EPOCH":14057,"BSTAR":-0.0011580088,"MEAN_MOTION_DOT":-3.98e-6,"MEAN_MOTION_DDOT":0},{"OBJECT_NAME":"ONEWEB-0621","OBJECT_ID":"2023-004Y","EPOCH":"2025-12-06T12:23:01.904928","MEAN_MOTION":13.11420112,"ECCENTRICITY":0.00016959,"INCLINATION":87.8868,"RA_OF_ASC_NODE":59.4217,"ARG_OF_PERICENTER":110.8443,"MEAN_ANOMALY":249.2867,"EPHEMERIS_TYPE":0,"CLASSIFICATION_TYPE":"U","NORAD_CAT_ID":55162,"ELEMENT_SET_NO":999,"REV_AT_EPOCH":14055,"BSTAR":0.0015221816,"MEAN_MOTION_DOT":5.52e-6,"MEAN_MOTION_DDOT":0},{"OBJECT_NAME":"ONEWEB-0622","OBJECT_ID":"2023-004Z","EPOCH":"2025-12-06T14:20:14.487360","MEAN_MOTION":13.11416975,"ECCENTRICITY":0.00010267,"INCLINATION":87.8858,"RA_OF_ASC_NODE":59.415,"ARG_OF_PERICENTER":125.9663,"MEAN_ANOMALY":234.1561,"EPHEMERIS_TYPE":0,"CLASSIFICATION_TYPE":"U","NORAD_CAT_ID":55163,"ELEMENT_SET_NO":999,"REV_AT_EPOCH":14055,"BSTAR":0.0017154673,"MEAN_MOTION_DOT":6.21e-6,"MEAN_MOTION_DDOT":0},{"OBJECT_NAME":"ONEWEB-0623","OBJECT_ID":"2023-004AA","EPOCH":"2025-12-06T14:18:05.745312","MEAN_MOTION":13.17652152,"ECCENTRICITY":0.00015573,"INCLINATION":87.9115,"RA_OF_ASC_NODE":44.1813,"ARG_OF_PERICENTER":128.8112,"MEAN_ANOMALY":231.3158,"EPHEMERIS_TYPE":0,"CLASSIFICATION_TYPE":"U","NORAD_CAT_ID":55164,"ELEMENT_SET_NO":999,"REV_AT_EPOCH":14222,"BSTAR":1.1311766e-5,"MEAN_MOTION_DOT":1.7e-7,"MEAN_MOTION_DDOT":0},{"OBJECT_NAME":"ONEWEB-0624","OBJECT_ID":"2023-004AB","EPOCH":"2025-12-06T14:44:30.086304","MEAN_MOTION":13.12920371,"ECCENTRICITY":0.00015471,"INCLINATION":87.8938,"RA_OF_ASC_NODE":28.8795,"ARG_OF_PERICENTER":108.3981,"MEAN_ANOMALY":251.7317,"EPHEMERIS_TYPE":0,"CLASSIFICATION_TYPE":"U","NORAD_CAT_ID":55165,"ELEMENT_SET_NO":999,"REV_AT_EPOCH":14280,"BSTAR":-0.00013036799,"MEAN_MOTION_DOT":-3.4e-7,"MEAN_MOTION_DDOT":0},{"OBJECT_NAME":"ONEWEB-0625","OBJECT_ID":"2023-004AC","EPOCH":"2025-12-06T14:03:30.341376","MEAN_MOTION":13.17649962,"ECCENTRICITY":0.0001901,"INCLINATION":87.9114,"RA_OF_ASC_NODE":44.1786,"ARG_OF_PERICENTER":99.4488,"MEAN_ANOMALY":260.6858,"EPHEMERIS_TYPE":0,"CLASSIFICATION_TYPE":"U","NORAD_CAT_ID":55166,"ELEMENT_SET_NO":999,"REV_AT_EPOCH":14221,"BSTAR":-0.00075183499,"MEAN_MOTION_DOT":-2.79e-6,"MEAN_MOTION_DDOT":0},{"OBJECT_NAME":"ONEWEB-0626","OBJECT_ID":"2023-004AD","EPOCH":"2025-12-06T13:48:56.876256","MEAN_MOTION":13.17648176,"ECCENTRICITY":0.0001558,"INCLINATION":87.9113,"RA_OF_ASC_NODE":44.1806,"ARG_OF_PERICENTER":83.941,"MEAN_ANOMALY":276.1899,"EPHEMERIS_TYPE":0,"CLASSIFICATION_TYPE":"U","NORAD_CAT_ID":55167,"ELEMENT_SET_NO":999,"REV_AT_EPOCH":14221,"BSTAR":-0.00019210138,"MEAN_MOTION_DOT":-6.2e-7,"MEAN_MOTION_DDOT":0},{"OBJECT_NAME":"ONEWEB-0627","OBJECT_ID":"2023-004AE","EPOCH":"2025-12-06T13:31:55.922016","MEAN_MOTION":13.17649629,"ECCENTRICITY":0.00014286,"INCLINATION":87.9114,"RA_OF_ASC_NODE":44.1836,"ARG_OF_PERICENTER":118.872,"MEAN_ANOMALY":241.2555,"EPHEMERIS_TYPE":0,"CLASSIFICATION_TYPE":"U","NORAD_CAT_ID":55168,"ELEMENT_SET_NO":999,"REV_AT_EPOCH":14221,"BSTAR":9.2714409e-5,"MEAN_MOTION_DOT":4.9e-7,"MEAN_MOTION_DDOT":0},{"OBJECT_NAME":"ONEWEB-0628","OBJECT_ID":"2023-004AF","EPOCH":"2025-12-06T14:24:23.475744","MEAN_MOTION":13.12440646,"ECCENTRICITY":0.00017821,"INCLINATION":87.8948,"RA_OF_ASC_NODE":28.9078,"ARG_OF_PERICENTER":121.495,"MEAN_ANOMALY":238.6353,"EPHEMERIS_TYPE":0,"CLASSIFICATION_TYPE":"U","NORAD_CAT_ID":55169,"ELEMENT_SET_NO":999,"REV_AT_EPOCH":14277,"BSTAR":0.0010727509,"MEAN_MOTION_DOT":3.99e-6,"MEAN_MOTION_DDOT":0}]
